[{"OBJECT_NAME":"STARLINK-1627","OBJECT_ID":"2020-057BD","EPOCH":"2026-03-10T00:00:02.999808","MEAN_MOTION":15.7182535,"ECCENTRICITY":0.00032384,"INCLINATION":53.043,"RA_OF_ASC_NODE":223.2369,"ARG_OF_PERICENTER":42.9244,"MEAN_ANOMALY":228.4026,"EPHEMERIS_TYPE":0,"CLASSIFICATION_TYPE":"U","NORAD_CAT_ID":46168,"ELEMENT_SET_NO":999,"REV_AT_EPOCH":596,"BSTAR":0.00036555083,"MEAN_MOTION_DOT":0.00048075,"MEAN_MOTION_DDOT":0},{"OBJECT_NAME":"STARLINK-11577 [DTC]","OBJECT_ID":"2025-032J","EPOCH":"2026-03-09T09:02:47.355072","MEAN_MOTION":15.70949884,"ECCENTRICITY":0.00015631,"INCLINATION":42.999,"RA_OF_ASC_NODE":197.3106,"ARG_OF_PERICENTER":236.3502,"MEAN_ANOMALY":123.7216,"EPHEMERIS_TYPE":0,"CLASSIFICATION_TYPE":"U","NORAD_CAT_ID":63013,"ELEMENT_SET_NO":999,"REV_AT_EPOCH":6216,"BSTAR":0.0016333224,"MEAN_MOTION_DOT":0.0021565,"MEAN_MOTION_DDOT":0}]
